satname,norad_id,inclination_deg,eccentricity,mean_motion_rev_per_day,perigee_km,apogee_km,l1,l2
STARLINK-1283,45389,53.0506,0.0003039,15.40937462,441.2682066614161,445.41430114413924,1 45389U 20019AF  25359.91668980  .00065116  00000+0  15548-2 0  9995,2 45389  53.0506 103.2203 0003039 353.0020 180.3314 15.40937462  5926
STARLINK-1284,45390,53.0548,9.77e-05,15.06414472,546.4906014770195,547.8438059184218,1 45390U 20019AG  25359.70971231 -.00004717  00000+0 -29785-3 0  9991,2 45390  53.0548 118.7314 0000977  92.0847 268.0254 15.06414472318852
STARLINK-1297,45395,53.0551,0.0001401,15.06396545,546.2519042194062,548.1923898524055,1 45395U 20019AM  25359.61388141  .00002624  00000+0  19499-3 0  9992,2 45395  53.0551 119.1583 0001401  88.7040 271.4109 15.06396545318020
STARLINK-1307,45397,53.0534,0.0001279,15.06390782,546.3540542307192,548.1255656186986,1 45397U 20019AP  25359.60650611  .00001436  00000+0  11531-3 0  9996,2 45397  53.0534 119.1907 0001279  92.9394 267.1741 15.06390782318666
STARLINK-1255,45399,53.0464,0.0001523,15.39772116,445.74318503458016,447.8220555509224,1 45399U 20019AR  25359.57202186  .00016498  00000+0  41943-3 0  9998,2 45399  53.0464  95.9376 0001523  62.9132 297.2027 15.39772116318976
STARLINK-1260,45404,53.0559,0.0001344,15.06391984,546.3053557845815,548.166896080832,1 45404U 20019AW  25359.74013060 -.00000386  00000+0 -70176-5 0  9998,2 45404  53.0559 108.5866 0001344  76.6972 283.4167 15.06391984318716
STARLINK-1263,45405,53.0532,0.0001517,15.06389322,546.1937043227972,548.2948650045637,1 45405U 20019AX  25359.52634095 -.00003120  00000+0 -19071-3 0  9996,2 45405  53.0532 109.5519 0001517  80.8213 279.2948 15.06389322318680
STARLINK-1265,45406,53.055,0.0001097,15.06383588,546.5021425563891,548.0215750660136,1 45406U 20019AY  25359.60005506  .00000948  00000+0  82555-4 0  9996,2 45406  53.0550 109.2218 0001097  93.3478 266.7637 15.06383588318694
STARLINK-1278,45408,53.0504,0.0005204,15.41699264,437.54520333522396,444.64265888832597,1 45408U 20019BA  25359.91668980  .00079909  00000+0  18541-2 0  9998,2 45408  53.0504 123.5735 0005204 191.6309  22.6643 15.41699264  5865
STARLINK-1296,45412,53.0553,0.0001029,15.06390368,546.5284573840063,547.9537001926201,1 45412U 20019BE  25359.60374878 -.00000806  00000+0 -35247-4 0  9995,2 45412  53.0553 109.2013 0001029  89.1362 270.9744 15.06390368318697
STARLINK-1298,45413,53.0423,0.0003732,15.64555365,371.99773526134413,377.0379168235022,1 45413U 20019BF  25359.91668980  .00112073  00000+0  11299-2 0  9997,2 45413  53.0423  63.5913 0003732  78.5867 166.1105 15.64555365  5931
STARLINK-1309,45414,53.0565,0.000206,15.06345891,545.9507432280279,548.8040551604963,1 45414U 20019BG  25359.61848840  .00012522  00000+0  85928-3 0  9999,2 45414  53.0565 109.1397 0002060 118.9898 241.1298 15.06345891318681
STARLINK-1316,45415,53.0555,0.0001132,15.063903,546.457334378636,548.0252400228574,1 45415U 20019BH  25359.57794164  .00000206  00000+0  32757-4 0  9993,2 45415  53.0555 109.3186 0001132  93.8376 266.2742 15.06390300318711
STARLINK-1318,45416,53.0457,0.0002627,15.71404078,353.11453894179067,356.6520678091838,1 45416U 20019BJ  25359.41842681  .00105832  00000+0  80799-3 0  9994,2 45416  53.0457  54.7268 0002627  13.0081 347.1003 15.71404078319455
STARLINK-1286,45417,53.0512,0.0002395,15.4312059,435.2737476891989,438.53815326247695,1 45417U 20019BK  25359.65327910  .00070486  00000+0  15630-2 0  9991,2 45417  53.0512 124.5968 0002395 207.4606 152.6272 15.43120590318768
STARLINK-1308,45419,53.0548,0.0001291,15.06400913,546.3146975886057,548.1028218637675,1 45419U 20019BM  25359.67837899 -.00000407  00000+0 -84492-5 0  9990,2 45419  53.0548 138.8654 0001291  92.7859 267.3277 15.06400913318317
STARLINK-1329,45531,53.0546,0.0001092,15.42180306,438.9313007912069,440.4203111080269,1 45531U 20025A   25359.91668980  .00056893  00000+0  13062-2 0  9992,2 45531  53.0546  74.6879 0001092  56.9500 123.2974 15.42180306  5789
STARLINK-1338,45532,53.0554,0.0001492,15.26256234,485.99151154780975,488.04007314104547,1 45532U 20025B   25359.91668980  .01819613  00000+0  63115-1 0  9994,2 45532  53.0554  76.9398 0001492  82.5383 323.6310 15.26256234  5830
STARLINK-1350,45535,53.0744,0.0001708,15.3394572,462.8851431279754,465.2224355016051,1 45535U 20025E   25359.24285485  .00010955  00000+0  33967-3 0  9993,2 45535  53.0744  22.2139 0001708  83.6539 276.4657 15.33945720314729
STARLINK-1362,45538,53.0565,0.000202,15.06404069,545.8001691778036,548.5980049569798,1 45538U 20025H   25359.22587808 -.00004899  00000+0 -31012-3 0  9999,2 45538  53.0565  80.6183 0002020 115.6634 244.4564 15.06404069313873
STARLINK-1368,45540,53.0548,0.0001394,15.06393498,546.2660893365883,548.1968820704014,1 45540U 20025K   25359.56227757  .00000791  00000+0  71997-4 0  9995,2 45540  53.0548  79.3897 0001394  87.3743 272.7406 15.06393498313910
STARLINK-1371,45542,53.0542,0.0001001,15.10900602,532.7602623183348,534.1439624586355,1 45542U 20025M   25359.91668980  .01461448  00000+0  79173-1 0  9995,2 45542  53.0542  77.7383 0001001  96.0835 217.5368 15.10900602  5785
STARLINK-1372,45543,53.0488,0.000173,15.06414832,545.9680229310934,548.3641778038209,1 45543U 20025N   25359.63597387  .00003033  00000+0  22237-3 0  9999,2 45543  53.0488  79.0602 0001730  98.2914 261.8271 15.06414832313029
STARLINK-1373,45544,53.0564,0.0001685,15.06385493,546.0890914368074,548.4229488846022,1 45544U 20025P   25359.52174053 -.00003024  00000+0 -18427-3 0  9997,2 45544  53.0564  79.5730 0001685  92.9367 267.1814 15.06385493313914
STARLINK-1294,45551,53.0439,0.0002045,15.70774331,355.3054917583622,358.0600330411835,1 45551U 20025W   25359.91668980  .00078560  00000+0  61907-3 0  9991,2 45551  53.0439 347.6882 0002045 108.3917 213.3893 15.70774331  6018
STARLINK-1325,45554,53.0487,0.0010202,15.82686142,316.0115895672361,329.6842792273801,1 45554U 20025Z   25359.91668980  .00258843  00000+0  11695-2 0  9996,2 45554  53.0487 337.8307 0010202  69.7140  21.6714 15.82686142  5970
STARLINK-1327,45555,53.0533,0.0001494,15.15007446,519.9252302228952,521.9866791977629,1 45555U 20025AA  25359.91668980  .01520438  00000+0  73216-1 0  9996,2 45555  53.0533  57.6407 0001494 117.4200  96.8365 15.15007446  5844
STARLINK-1356,45564,53.0563,0.0001463,15.06395939,546.210824031411,548.2371846612823,1 45564U 20025AK  25359.56412108  .00010670  00000+0  73421-3 0  9997,2 45564  53.0563  59.3820 0001463  79.4695 280.6459 15.06395939314191
STARLINK-1357,45565,53.0582,4.25e-05,15.41317757,441.92928367127934,442.50901394392713,1 45565U 20025AL  25359.91668980  .00134056  00000+0  31225-2 0  9998,2 45565  53.0582  31.0005 0000425 230.5216  58.0764 15.41317757  5870
STARLINK-1361,45567,53.0554,0.0001617,15.06395115,546.1066985173993,548.3463610829376,1 45567U 20025AN  25359.58255122  .00001544  00000+0  12254-3 0  9990,2 45567  53.0554  59.2976 0001617  77.2814 282.8355 15.06395115314202
STARLINK-1363,45568,53.0499,0.0007261,15.52176715,405.44287132652244,415.3011441075296,1 45568U 20025AP  25359.91668980  .00148137  00000+0  23656-2 0  9995,2 45568  53.0499  39.7000 0007261 324.2617 319.8298 15.52176715  5847
STARLINK-1366,45569,53.0496,0.0007314,15.49113415,414.3467099872978,424.290027700843,1 45569U 20025AQ  25359.91668980  .00138734  00000+0  24732-2 0  9994,2 45569  53.0496  40.0832 0007314 338.6639  52.4178 15.49113415  5958
STARLINK-1376,45570,53.0554,0.000127,15.06395148,546.3469075039366,548.1059498148161,1 45570U 20025AR  25359.57886819 -.00000715  00000+0 -29086-4 0  9999,2 45570  53.0554  59.3165 0001270  85.5075 274.6059 15.06395148314197
STARLINK-1320,45572,53.0555,0.0004666,15.52155981,407.26491588273257,413.6000089050385,1 45572U 20025AT  25359.91668980  .00172019  00000+0  27410-2 0  9998,2 45572  53.0555 345.3312 0004666  99.6082 357.0168 15.52155981  5956
STARLINK-1321,45573,53.0552,0.0001487,15.16316772,515.9585416604259,518.0091506000645,1 45573U 20025AU  25359.91668980  .01564670  00000+0  72413-1 0  9990,2 45573  53.0552  47.5445 0001487 117.8739 122.5871 15.16316772  5843
STARLINK-1328,45576,53.0437,7.14e-05,15.94939896,288.00586753259813,288.95786070639497,1 45576U 20025AX  25359.91668980  .00415005  79725-4  10541-2 0  9999,2 45576  53.0437 354.7274 0000714  66.7152 241.5175 15.94939896  5993
STARLINK-1331,45578,53.0557,0.0001272,15.06404002,546.3183896354303,548.0801951882204,1 45578U 20025AZ  25358.48137425  .00000421  00000+0  47142-4 0  9993,2 45578  53.0557  54.2458 0001272  97.9534 262.1599 15.06404002314186
STARLINK-1333,45580,53.0572,0.0001274,15.06405932,546.3110901822374,548.0756643623672,1 45580U 20025BB  25359.54936772 -.00001490  00000+0 -81161-4 0  9994,2 45580  53.0572  59.4471 0001274 105.0378 255.0752 15.06405932314193
STARLINK-1335,45581,53.0562,0.0001611,15.06394031,546.1141755241142,548.3455287238685,1 45581U 20025BC  25359.55398816 -.00000798  00000+0 -34702-4 0  9996,2 45581  53.0562  49.4254 0001611 111.8903 248.2258 15.06394031314333
STARLINK-1337,45582,53.0557,0.0001389,15.06400992,546.246587110425,548.1704480952158,1 45582U 20025BD  25359.44340264  .00002001  00000+0  15315-3 0  9994,2 45582  53.0557  49.9246 0001389  92.4847 267.6301 15.06400992314313
STARLINK-1347,45586,53.0511,8.4e-06,15.39992875,446.07304302671673,446.18769071848055,1 45586U 20025BH  25359.91668980  .00140315  00000+0  34113-2 0  9995,2 45586  53.0511  21.8462 0000084  85.0836  10.1411 15.39992875  5810
STARLINK-1360,45588,53.0375,0.0004843,15.98176015,276.25512639307,282.7036936478162,1 45588U 20025BK  25359.91668980  .00729345  24743-3  15474-2 0  9996,2 45588  53.0375 280.8052 0004843 126.6383 313.3310 15.98176015  6012
STARLINK-1364,45589,53.0552,0.0002065,15.06405036,545.7660420766179,548.6262046565689,1 45589U 20025BL  25359.44708396 -.00001513  00000+0 -82656-4 0  9997,2 45589  53.0552  49.9096 0002065 109.5100 250.6112 15.06405036314318
